0 THOR ABLESTAR R/B
1 00047U 60007C   13282.34842197  .00000232  00000-0  76859-4 0   355
2 00047 066.6673 203.9783 0238725 289.2214 068.3198 14.40730908782945
0 THOR ABLESTAR R/B
1 00047U 60007C   13283.80621903  .00000196  00000-0  68987-4 0   360
2 00047 066.6673 200.0887 0238709 288.1909 069.3341 14.40732090783158
0 THOR ABLESTAR R/B
1 00047U 60007C   13286.09703928  .00000233  00000-0  77111-4 0   385
2 00047 066.6672 193.9764 0238775 286.5648 070.9352 14.40733259783480
0 THOR ABLESTAR R/B
1 00047U 60007C   13287.13832072  .00000283  00000-0  88263-4 0   390
2 00047 066.6670 191.1981 0238799 285.8253 071.6642 14.40733902783631
0 THOR ABLESTAR R/B
1 00047U 60007C   13288.24902023  .00000447  00000-0  12471-3 0   408
2 00047 066.6668 188.2346 0238832 285.0346 072.4440 14.40735676783795
0 THOR ABLESTAR R/B
1 00047U 60007C   13289.29030030  .00000286  00000-0  88938-4 0   418
2 00047 066.6666 185.4563 0238823 284.2992 073.1701 14.40737171783948
0 THOR ABLESTAR R/B
1 00047U 60007C   13290.74809108  .00000290  00000-0  89777-4 0   428
2 00047 066.6664 181.5666 0238813 283.2656 074.1913 14.40738783784152
0 THOR ABLESTAR R/B
1 00047U 60007C   13291.78936881  .00000293  00000-0  90485-4 0   434
2 00047 066.6662 178.7882 0238822 282.5269 074.9215 14.40739521784301
0 THOR ABLESTAR R/B
1 00047U 60007C   13293.10831991  .00000309  00000-0  93951-4 0   448
2 00047 066.6662 175.2688 0238844 281.5922 075.8460 14.40740430784499
0 THOR ABLESTAR R/B
1 00047U 60007C   13294.21901534  .00000274  00000-0  86271-4 0   451
2 00047 066.6661 172.3051 0238863 280.8089 076.6213 14.40741836784651
0 THOR ABLESTAR R/B
1 00047U 60007C   13295.81563793  .00000313  00000-0  94865-4 0   462
2 00047 066.6661 168.0448 0238878 279.6770 077.7426 14.40742704784880
